[{"OBJECT_NAME":"STARLINK-3728","OBJECT_ID":"2022-045AG","EPOCH":"2026-03-09T16:05:34.708704","MEAN_MOTION":15.08825995,"ECCENTRICITY":0.00012833,"INCLINATION":53.2163,"RA_OF_ASC_NODE":199.2039,"ARG_OF_PERICENTER":91.4703,"MEAN_ANOMALY":268.6436,"EPHEMERIS_TYPE":0,"CLASSIFICATION_TYPE":"U","NORAD_CAT_ID":52361,"ELEMENT_SET_NO":999,"REV_AT_EPOCH":21578,"BSTAR":-0.00020148327,"MEAN_MOTION_DOT":-3.492e-5,"MEAN_MOTION_DDOT":0},{"OBJECT_NAME":"FENGYUN 1C DEB","OBJECT_ID":"1999-025BQF","EPOCH":"2026-03-08T19:58:36.101856","MEAN_MOTION":15.15826086,"ECCENTRICITY":0.00798835,"INCLINATION":98.9812,"RA_OF_ASC_NODE":89.4872,"ARG_OF_PERICENTER":83.7388,"MEAN_ANOMALY":277.2932,"EPHEMERIS_TYPE":0,"CLASSIFICATION_TYPE":"U","NORAD_CAT_ID":31327,"ELEMENT_SET_NO":999,"REV_AT_EPOCH":1401,"BSTAR":0.0018254058,"MEAN_MOTION_DOT":0.00037915,"MEAN_MOTION_DDOT":0}]
